NORAD_CAT_ID,OBJECT_NAME,OBJECT_TYPE,EPOCH,MEAN_MOTION,ECCENTRICITY,INCLINATION,RA_OF_ASC_NODE,ARG_OF_PERICENTER,MEAN_ANOMALY,BSTAR,MEAN_MOTION_DOT,MEAN_MOTION_DDOT,TLE_LINE0,TLE_LINE1,TLE_LINE2,SEMIMAJOR_AXIS,PERIOD,APOGEE,PERIGEE,DECAYED
53744.0,STARLINK-4670,PAYLOAD,2023-03-04 07:33:17,15.08833275,9.28e-05,53.2176,168.3538,106.9652,253.1441,0.00089453,0.00013975,0.0,0 STARLINK-4670,1 53744U 22107AW  23063.31478413  .00013975  00000-0  89453-3 0  9997,2 53744  53.2176 168.3538 0000928 106.9652 253.1441 15.08833275 27541,6917.901,95.438,540.408,539.124,0.0
53744.0,STARLINK-4670,PAYLOAD,2023-03-04 10:44:03,15.0884485,0.0001065,53.2173,167.7601,108.6261,251.4847,0.0033532,0.0005349,0.0,0 STARLINK-4670,1 53744U 22107AW  23063.44726714  .00053490  00000-0  33532-2 0  9993,2 53744  53.2173 167.7601 0001065 108.6261 251.4847 15.08844850 28341,6917.866,95.437,540.467,538.994,0.0
53744.0,STARLINK-4670,PAYLOAD,2023-03-04 15:30:13,15.08863297,0.0001104,53.2176,166.8681,100.9521,259.1595,0.0037176,0.00059414,0.0,0 STARLINK-4670,1 53744U 22107AW  23063.64598684  .00059414  00000-0  37176-2 0  9998,2 53744  53.2176 166.8681 0001104 100.9521 259.1595 15.08863297 27597,6917.809,95.436,540.438,538.91,0.0
53744.0,STARLINK-4670,PAYLOAD,2023-03-04 23:27:09,15.08829997,0.0001569,53.2183,165.3824,108.963,251.1533,0.0026815,0.00042635,0.0,0 STARLINK-4670,1 53744U 22107AW  23063.97719217  .00042635  00000-0  26815-2 0  9996,2 53744  53.2183 165.3824 0001569 108.9630 251.1533 15.08829997 27641,6917.911,95.438,540.861,538.691,0.0
53744.0,STARLINK-4670,PAYLOAD,2023-03-06 05:39:29,15.08915647,0.0001648,53.2172,159.7323,113.5681,246.5485,0.0040557,0.00064989,0.0,0 STARLINK-4670,1 53744U 22107AW  23065.23575355  .00064989  00000-0  40557-2 0  9995,2 53744  53.2172 159.7323 0001648 113.5681 246.5485 15.08915647 27839,6917.649,95.433,540.654,538.374,0.0
53744.0,STARLINK-4670,PAYLOAD,2023-03-06 12:01:01,15.088687,0.000105,53.2171,158.543,107.4402,252.6705,0.0025528,0.00040606,0.0,0 STARLINK-4670,1 53744U 22107AW  23065.50070991  .00040606  00000-0  25528-2 0  9992,2 53744  53.2171 158.5430 0001050 107.4402 252.6705 15.08868700 27878,6917.793,95.436,540.384,538.931,0.0
53744.0,STARLINK-4670,PAYLOAD,2023-03-06 18:22:33,15.08890779,9.79e-05,53.2168,157.3529,106.5599,253.5501,0.0017616,0.00027898,0.0,0 STARLINK-4670,1 53744U 22107AW  23065.76566086  .00027898  00000-0  17616-2 0  9992,2 53744  53.2168 157.3529 0000979 106.5599 253.5501 15.08890779 28692,6917.725,95.434,540.267,538.913,0.0
53744.0,STARLINK-4670,PAYLOAD,2023-03-07 05:30:16,15.08840255,0.00013,53.2166,155.2715,109.7819,250.3313,-3.2964e-05,-8.12e-06,0.0,0 STARLINK-4670,1 53744U 22107AW  23066.22935217 -.00000812  00000-0 -32964-4 0  9994,2 53744  53.2166 155.2715 0001300 109.7819 250.3313 15.08840255 27984,6917.88,95.438,540.644,538.845,0.0
53744.0,STARLINK-4670,PAYLOAD,2023-03-07 11:51:48,15.0885715,0.0001359,53.2165,154.0826,111.2719,248.8418,0.0025689,0.00040853,0.0,0 STARLINK-4670,1 53744U 22107AW  23066.49431230  .00040853  00000-0  25689-2 0  9990,2 53744  53.2165 154.0826 0001359 111.2719 248.8418 15.08857150 28020,6917.828,95.436,540.633,538.753,0.0
53744.0,STARLINK-4670,PAYLOAD,2023-03-07 18:13:20,15.08887287,0.0001485,53.2163,152.8934,108.3165,251.7989,0.0038041,0.00060856,0.0,0 STARLINK-4670,1 53744U 22107AW  23066.75926861  .00060856  00000-0  38041-2 0  9999,2 53744  53.2163 152.8934 0001485 108.3165 251.7989 15.08887287 28846,6917.736,95.435,540.628,538.574,0.0
53744.0,STARLINK-4670,PAYLOAD,2023-03-08 02:10:17,15.08823962,0.0001364,53.2163,151.4071,91.0667,269.0482,0.0027882,0.00044346,0.0,0 STARLINK-4670,1 53744U 22107AW  23067.09047711  .00044346  00000-0  27882-2 0  9992,2 53744  53.2163 151.4071 0001364  91.0667 269.0482 15.08823962 28114,6917.929,95.439,540.738,538.851,0.0
53744.0,STARLINK-4670,PAYLOAD,2023-03-08 19:39:31,15.08842601,0.0002076,53.2162,148.1359,71.1224,288.9993,0.0017142,0.00027101,0.0,0 STARLINK-4670,1 53744U 22107AW  23067.81911580  .00027101  00000-0  17142-2 0  9994,2 53744  53.2162 148.1359 0002076  71.1224 288.9993 15.08842601 29001,6917.872,95.437,541.174,538.301,0.0
53744.0,STARLINK-4670,PAYLOAD,2023-03-08 22:50:18,15.08827979,0.0002608,53.2161,147.5413,56.9813,303.143,0.0044358,0.00070998,0.0,0 STARLINK-4670,1 53744U 22107AW  23067.95160003  .00070998  00000-0  44358-2 0  9996,2 53744  53.2161 147.5413 0002608  56.9813 303.1430 15.08827979 28242,6917.917,95.438,541.586,537.978,0.0
53744.0,STARLINK-4670,PAYLOAD,2023-03-09 16:19:31,15.08908371,0.0001508,53.2162,144.2697,105.2231,254.8928,0.0045664,0.0007328,0.0,0 STARLINK-4670,1 53744U 22107AW  23068.68022324  .00073280  00000-0  45664-2 0  9998,2 53744  53.2162 144.2697 0001508 105.2231 254.8928 15.08908371 28353,6917.671,95.433,540.58,538.493,0.0
53744.0,STARLINK-4670,PAYLOAD,2023-03-10 05:02:36,15.08845561,0.0001107,53.2162,141.8914,95.2941,264.8177,0.0042488,0.00067995,0.0,0 STARLINK-4670,1 53744U 22107AW  23069.21014966  .00067995  00000-0  42488-2 0  9998,2 53744  53.2162 141.8914 0001107  95.2941 264.8177 15.08845561 28436,6917.863,95.437,540.494,538.963,0.0
53744.0,STARLINK-4670,PAYLOAD,2023-03-10 19:21:05,15.08804069,0.0001635,53.2164,139.215,70.595,289.5219,-1.6553e-05,-5.51e-06,0.0,0 STARLINK-4670,1 53744U 22107AW  23069.80631371 -.00000551  00000-0 -16553-4 0  9991,2 53744  53.2164 139.2150 0001635  70.5950 289.5219 15.08804069 28522,6917.99,95.44,540.986,538.724,0.0
53744.0,STARLINK-4670,PAYLOAD,2023-03-11 04:53:24,15.08809603,0.000114,53.2163,137.431,115.539,244.572,0.0038018,0.00060688,0.0,0 STARLINK-4670,1 53744U 22107AW  23070.20376009  .00060688  00000-0  38018-2 0  9994,2 53744  53.2163 137.4310 0001140 115.5390 244.5720 15.08809603 28581,6917.973,95.439,540.627,539.05,0.0
53744.0,STARLINK-4670,PAYLOAD,2023-03-11 12:50:20,15.08840865,0.0001097,53.2162,135.9436,119.6677,240.4424,0.002936,0.0004675,0.0,0 STARLINK-4670,1 53744U 22107AW  23070.53496277  .00046750  00000-0  29360-2 0  9994,2 53744  53.2162 135.9436 0001097 119.6677 240.4424 15.08840865 29410,6917.878,95.437,540.502,538.984,0.0
53744.0,STARLINK-4670,PAYLOAD,2023-03-11 16:01:07,15.08853634,0.000115,53.2162,135.3486,120.1525,239.9581,0.0027976,0.00044534,0.0,0 STARLINK-4670,1 53744U 22107AW  23070.66744220  .00044534  00000-0  27976-2 0  9991,2 53744  53.2162 135.3486 0001150 120.1525 239.9581 15.08853634 28658,6917.839,95.437,540.499,538.908,0.0
53744.0,STARLINK-4670,PAYLOAD,2023-03-12 07:54:58,15.08846074,0.0001274,53.2161,132.3749,115.5022,244.6102,0.0016154,0.00025519,0.0,0 STARLINK-4670,1 53744U 22107AW  23071.32984928  .00025519  00000-0  16154-2 0  9994,2 53744  53.2161 132.3749 0001274 115.5022 244.6102 15.08846074 28756,6917.862,95.437,540.608,538.845,0.0
53744.0,STARLINK-4670,PAYLOAD,2023-03-12 12:41:08,15.08862403,9.43e-05,53.216,131.4829,106.6032,253.5064,0.0025872,0.00041153,0.0,0 STARLINK-4670,1 53744U 22107AW  23071.52856819  .00041153  00000-0  25872-2 0  9992,2 53744  53.2160 131.4829 0000943 106.6032 253.5064 15.08862403 29568,6917.812,95.436,540.329,539.025,0.0
53744.0,STARLINK-4670,PAYLOAD,2023-03-12 19:02:40,15.08839417,0.0001158,53.2159,130.2933,101.1956,258.9167,0.00062354,9.649e-05,0.0,0 STARLINK-4670,1 53744U 22107AW  23071.79352917  .00009649  00000-0  62354-3 0  9992,2 53744  53.2159 130.2933 0001158 101.1956 258.9167 15.08839417 28823,6917.882,95.438,540.548,538.946,0.0
53744.0,STARLINK-4670,PAYLOAD,2023-03-13 12:31:55,15.08863271,0.0001155,53.2157,127.0223,94.2437,265.8687,0.0019297,0.00030576,0.0,0 STARLINK-4670,1 53744U 22107AW  23072.52216582  .00030576  00000-0  19297-2 0  9991,2 53744  53.2157 127.0223 0001155  94.2437 265.8687 15.08863271 29718,6917.809,95.436,540.473,538.875,0.0
53744.0,STARLINK-4670,PAYLOAD,2023-03-13 15:42:41,15.0887122,0.0001182,53.2157,126.4276,91.7831,268.3297,0.0020664,0.0003278,0.0,0 STARLINK-4670,1 53744U 22107AW  23072.65464367  .00032780  00000-0  20664-2 0  9990,2 53744  53.2157 126.4276 0001182  91.7831 268.3297 15.08871220 28952,6917.785,95.436,540.468,538.832,0.0
53744.0,STARLINK-4670,PAYLOAD,2023-03-13 22:04:13,15.0885862,0.0001505,53.2156,125.2383,93.6578,266.4587,0.0010368,0.0001626,0.0,0 STARLINK-4670,1 53744U 22107AW  23072.91960495  .00016260  00000-0  10368-2 0  9997,2 53744  53.2156 125.2383 0001505  93.6578 266.4587 15.08858620 28999,6917.823,95.436,540.73,538.647,0.0
53744.0,STARLINK-4670,PAYLOAD,2023-03-14 12:22:42,15.08863756,0.0001194,53.2156,122.562,75.2947,284.8177,0.0021943,0.0003483,0.0,0 STARLINK-4670,1 53744U 22107AW  23073.51576536  .00034830  00000-0  21943-2 0  9997,2 53744  53.2156 122.5620 0001194  75.2947 284.8177 15.08863756 29089,6917.808,95.436,540.499,538.847,0.0
53744.0,STARLINK-4670,PAYLOAD,2023-03-14 20:19:37,15.08864177,0.0001434,53.2156,121.0753,82.4024,277.7131,0.001884,0.00029843,0.0,0 STARLINK-4670,1 53744U 22107AW  23073.84696483  .00029843  00000-0  18840-2 0  9997,2 53744  53.2156 121.0753 0001434  82.4024 277.7131 15.08864177 29138,6917.806,95.436,540.664,538.679,0.0
53744.0,STARLINK-4670,PAYLOAD,2023-03-15 12:13:28,15.08883149,0.0001464,53.2158,118.1016,84.0094,276.1065,0.0014199,0.00022409,0.0,0 STARLINK-4670,1 53744U 22107AW  23074.50935328  .00022409  00000-0  14199-2 0  9999,2 53744  53.2158 118.1016 0001464  84.0094 276.1065 15.08883149 29237,6917.749,95.435,540.626,538.601,0.0
53744.0,STARLINK-4670,PAYLOAD,2023-03-15 20:10:23,15.08858942,0.0001393,53.2159,116.6151,83.9089,276.2062,0.00042567,6.497e-05,0.0,0 STARLINK-4670,1 53744U 22107AW  23074.84055451  .00006497  00000-0  42567-3 0  9996,2 53744  53.2159 116.6151 0001393  83.9089 276.2062 15.08858942 29280,6917.822,95.436,540.651,538.724,0.0
53744.0,STARLINK-4670,PAYLOAD,2023-03-16 12:04:15,15.08835718,0.0001071,53.2165,113.6417,97.0002,263.1112,0.0012125,0.00019059,0.0,0 STARLINK-4670,1 53744U 22107AW  23075.50295855  .00019059  00000-0  12125-2 0  9998,2 53744  53.2165 113.6417 0001071  97.0002 263.1112 15.08835718 29381,6917.893,95.438,540.499,539.018,0.0
